<?xml version="1.0" encoding="UTF-8" standalone="yes"?>
<gpx version="1.1" creator="outdooractive - http://www.outdooractive.com" xmlns="http://www.topografix.com/GPX/1/1" xmlns:xsi="http://www.w3.org/2001/XMLSchema-instance" xsi:schemaLocation="http://www.topografix.com/GPX/1/1 http://www.topografix.com/GPX/1/1/gpx.xsd" xmlns:oa="http://www.outdooractive.com/GPX/Extensions/1">
  <metadata>
    <name>21 Station to station Bettembourg - Dudelange-Burange</name>
    <author>
      <name>Visit Luxembourg - Visit Luxembourg</name>
    </author>
    <link href="https://www.outdooractive.com/r/58330840"/>
    <time>2023-06-16T09:27:47.983Z</time>
    <extensions>
      <oa:oaCategory>hikingTourTrail</oa:oaCategory>
    </extensions>
  </metadata>
  <trkpt lat="49.517018" lon="6.102046">
    <ele>279.6</ele>
    <name>49.517018,6.102046</name>
  </trkpt>
</gpx>      
